<?xml version="1.0" encoding="UTF-8"?>
<opm id="CCSDS_OPM_VERS" version="2.0">
  <header>
    <CREATION_DATE>2026-06-28T12:30:00.000</CREATION_DATE>
    <ORIGINATOR>SIDEREON TEST</ORIGINATOR>
  </header>
  <body>
    <segment>
      <metadata>
        <OBJECT_NAME>OSPREY-1</OBJECT_NAME>
        <OBJECT_ID>2026-045A</OBJECT_ID>
        <CENTER_NAME>EARTH</CENTER_NAME>
        <REF_FRAME>EME2000</REF_FRAME>
        <TIME_SYSTEM>UTC</TIME_SYSTEM>
      </metadata>
      <data>
        <stateVector>
          <EPOCH>2026-06-28T12:00:00.000</EPOCH>
          <X>6878.137</X>
          <Y>-120.25</Y>
          <Z>410.75</Z>
          <X_DOT>0.125</X_DOT>
          <Y_DOT>7.612</Y_DOT>
          <Z_DOT>1.034</Z_DOT>
        </stateVector>
        <keplerianElements>
          <SEMI_MAJOR_AXIS>6878.137</SEMI_MAJOR_AXIS>
          <ECCENTRICITY>0.0012</ECCENTRICITY>
          <INCLINATION>51.64</INCLINATION>
          <RA_OF_ASC_NODE>120.5</RA_OF_ASC_NODE>
          <ARG_OF_PERICENTER>87.2</ARG_OF_PERICENTER>
          <TRUE_ANOMALY>42.0</TRUE_ANOMALY>
          <GM>398600.4418</GM>
        </keplerianElements>
        <spacecraftParameters>
          <MASS>425.0</MASS>
          <SOLAR_RAD_AREA>9.5</SOLAR_RAD_AREA>
          <SOLAR_RAD_COEFF>1.21</SOLAR_RAD_COEFF>
          <DRAG_AREA>7.2</DRAG_AREA>
          <DRAG_COEFF>2.2</DRAG_COEFF>
        </spacecraftParameters>
        <covarianceMatrix>
          <COV_REF_FRAME>EME2000</COV_REF_FRAME>
          <CX_X>0.01</CX_X>
          <CY_X>0</CY_X>
          <CY_Y>0.02</CY_Y>
          <CZ_X>0</CZ_X>
          <CZ_Y>0</CZ_Y>
          <CZ_Z>0.03</CZ_Z>
          <CX_DOT_X>0</CX_DOT_X>
          <CX_DOT_Y>0</CX_DOT_Y>
          <CX_DOT_Z>0</CX_DOT_Z>
          <CX_DOT_X_DOT>0.000001</CX_DOT_X_DOT>
          <CY_DOT_X>0</CY_DOT_X>
          <CY_DOT_Y>0</CY_DOT_Y>
          <CY_DOT_Z>0</CY_DOT_Z>
          <CY_DOT_X_DOT>0</CY_DOT_X_DOT>
          <CY_DOT_Y_DOT>0.000002</CY_DOT_Y_DOT>
          <CZ_DOT_X>0</CZ_DOT_X>
          <CZ_DOT_Y>0</CZ_DOT_Y>
          <CZ_DOT_Z>0</CZ_DOT_Z>
          <CZ_DOT_X_DOT>0</CZ_DOT_X_DOT>
          <CZ_DOT_Y_DOT>0</CZ_DOT_Y_DOT>
          <CZ_DOT_Z_DOT>0.000003</CZ_DOT_Z_DOT>
        </covarianceMatrix>
        <maneuverParameters>
          <MAN_EPOCH_IGNITION>2026-06-28T12:15:00.000</MAN_EPOCH_IGNITION>
          <MAN_DURATION>12.5</MAN_DURATION>
          <MAN_DELTA_MASS>-0.42</MAN_DELTA_MASS>
          <MAN_REF_FRAME>TNW</MAN_REF_FRAME>
          <MAN_DV_1>0.0005</MAN_DV_1>
          <MAN_DV_2>0.001</MAN_DV_2>
          <MAN_DV_3>0</MAN_DV_3>
        </maneuverParameters>
        <maneuverParameters>
          <MAN_EPOCH_IGNITION>2026-06-28T13:45:00.000</MAN_EPOCH_IGNITION>
          <MAN_DURATION>8.0</MAN_DURATION>
          <MAN_DELTA_MASS>-0.27</MAN_DELTA_MASS>
          <MAN_REF_FRAME>TNW</MAN_REF_FRAME>
          <MAN_DV_1>-0.0002</MAN_DV_1>
          <MAN_DV_2>0.0008</MAN_DV_2>
          <MAN_DV_3>0.0001</MAN_DV_3>
        </maneuverParameters>
      </data>
    </segment>
  </body>
</opm>
